[Satellite]
VERSION=1.1
NAME=FLOCK 2K-19
NICKNAME=FLOCK 2K-19
TLE1=1 42886U 17042BP  18020.66134223  .00002582  00000-0  77158-4 0  9999
TLE2=2 42886  96.9940 284.7716 0011070 277.9845  82.0143 15.35389167 28997
